[{"OBJECT_NAME":"STARLINK-11366 [DTC]","OBJECT_ID":"2024-195G","EPOCH":"2026-03-09T04:21:22.000032","MEAN_MOTION":15.69707533,"ECCENTRICITY":0.00011956,"INCLINATION":53.1593,"RA_OF_ASC_NODE":28.7774,"ARG_OF_PERICENTER":73.8413,"MEAN_ANOMALY":286.2737,"EPHEMERIS_TYPE":0,"CLASSIFICATION_TYPE":"U","NORAD_CAT_ID":61693,"ELEMENT_SET_NO":999,"REV_AT_EPOCH":7895,"BSTAR":-2.500822e-6,"MEAN_MOTION_DOT":-8.92e-6,"MEAN_MOTION_DDOT":0},{"OBJECT_NAME":"USA 124","OBJECT_ID":"1996-029F","EPOCH":"2026-03-09T04:54:59.012352","MEAN_MOTION":15.73809521,"ECCENTRICITY":0.0175574,"INCLINATION":63.264,"RA_OF_ASC_NODE":22.5124,"ARG_OF_PERICENTER":82.7151,"MEAN_ANOMALY":279.3906,"EPHEMERIS_TYPE":0,"CLASSIFICATION_TYPE":"U","NORAD_CAT_ID":23937,"ELEMENT_SET_NO":999,"REV_AT_EPOCH":9942,"BSTAR":0.00078971903,"MEAN_MOTION_DOT":0.00308048,"MEAN_MOTION_DDOT":3.6672726e-5}]
